{
  "type": "FeatureCollection",
  "features": [
    {
      "type": "Feature",
      "properties": {
        "norad_id": 66603,
        "name": "STARLINK-36048",
        "group": "last-30-days",
        "lat": 42.43448711741652,
        "lon": -86.1900824797069,
        "alt_km": 414.0603790434243,
        "timestamp": "2025-12-16T03:53:25.815983+00:00",
        "meta_object_name": "STARLINK-36048",
        "meta_object_id": "2025-270R",
        "meta_epoch": "2025-12-14T20:31:57.468000",
        "meta_mean_motion": 15.4998209,
        "meta_eccentricity": 0.00036397,
        "meta_inclination": 42.9992,
        "meta_ra_of_asc_node": 180.2932,
        "meta_arg_of_pericenter": 268.8194,
        "meta_mean_anomaly": 91.2249,
        "meta_ephemeris_type": 0,
        "meta_classification_type": "U",
        "meta_norad_cat_id": 66603,
        "meta_element_set_no": 999,
        "meta_rev_at_epoch": 457,
        "meta_bstar": -0.0034237355,
        "meta_mean_motion_dot": -0.00192289,
        "meta_mean_motion_ddot": 0,
        "tle_line1": "1 66603U 25270R   25348.85552625 -.00192289  00000+0 -34237-2 0  9990",
        "tle_line2": "2 66603  42.9992 180.2932 0003639 268.8194  91.2249 15.49982090  4572"
      },
      "geometry": {
        "type": "Point",
        "coordinates": [
          -86.1900824797069,
          42.43448711741652
        ]
      }
    },
    {
      "type": "Feature",
      "properties": {
        "norad_id": 66604,
        "name": "STARLINK-35977",
        "group": "last-30-days",
        "lat": 41.200281346035055,
        "lon": -77.324001671653,
        "alt_km": 409.1348177129539,
        "timestamp": "2025-12-16T03:53:25.815994+00:00",
        "meta_object_name": "STARLINK-35977",
        "meta_object_id": "2025-270S",
        "meta_epoch": "2025-12-15T05:47:51.952128",
        "meta_mean_motion": 15.50594552,
        "meta_eccentricity": 0.00014478,
        "meta_inclination": 42.9989,
        "meta_ra_of_asc_node": 178.0309,
        "meta_arg_of_pericenter": 284.8784,
        "meta_mean_anomaly": 75.1916,
        "meta_ephemeris_type": 0,
        "meta_classification_type": "U",
        "meta_norad_cat_id": 66604,
        "meta_element_set_no": 999,
        "meta_rev_at_epoch": 473,
        "meta_bstar": 0.00084362823,
        "meta_mean_motion_dot": 0.00049491,
        "meta_mean_motion_ddot": 0,
        "tle_line1": "1 66604U 25270S   25349.24157352  .00049491  00000+0  84363-3 0  9993",
        "tle_line2": "2 66604  42.9989 178.0309 0001447 284.8784  75.1916 15.50594552  4734"
      },
      "geometry": {
        "type": "Point",
        "coordinates": [
          -77.324001671653,
          41.200281346035055
        ]
      }
    },
    {
      "type": "Feature",
      "properties": {
        "norad_id": 66605,
        "name": "STARLINK-36052",
        "group": "last-30-days",
        "lat": 40.70611094133901,
        "lon": -74.77046996786301,
        "alt_km": 408.95513480837053,
        "timestamp": "2025-12-16T03:53:25.816006+00:00",
        "meta_object_name": "STARLINK-36052",
        "meta_object_id": "2025-270T",
        "meta_epoch": "2025-12-15T05:47:22.095744",
        "meta_mean_motion": 15.50597887,
        "meta_eccentricity": 0.00012483,
        "meta_inclination": 42.9988,
        "meta_ra_of_asc_node": 178.0285,
        "meta_arg_of_pericenter": 267.4948,
        "meta_mean_anomaly": 92.577,
        "meta_ephemeris_type": 0,
        "meta_classification_type": "U",
        "meta_norad_cat_id": 66605,
        "meta_element_set_no": 999,
        "meta_rev_at_epoch": 473,
        "meta_bstar": 0.0011327433,
        "meta_mean_motion_dot": 0.00066724,
        "meta_mean_motion_ddot": 0,
        "tle_line1": "1 66605U 25270T   25349.24122796  .00066724  00000+0  11327-2 0  9995",
        "tle_line2": "2 66605  42.9988 178.0285 0001248 267.4948  92.5770 15.50597887  4730"
      },
      "geometry": {
        "type": "Point",
        "coordinates": [
          -74.77046996786301,
          40.70611094133901
        ]
      }
    },
    {
      "type": "Feature",
      "properties": {
        "norad_id": 66606,
        "name": "STARLINK-36063",
        "group": "last-30-days",
        "lat": 39.619215547013894,
        "lon": -70.04499709705676,
        "alt_km": 409.45215018552335,
        "timestamp": "2025-12-16T03:53:25.816017+00:00",
        "meta_object_name": "STARLINK-36063",
        "meta_object_id": "2025-270U",
        "meta_epoch": "2025-12-15T05:46:22.690560",
        "meta_mean_motion": 15.50593862,
        "meta_eccentricity": 0.00016024,
        "meta_inclination": 42.9989,
        "meta_ra_of_asc_node": 178.0222,
        "meta_arg_of_pericenter": 269.3517,
        "meta_mean_anomaly": 90.7159,
        "meta_ephemeris_type": 0,
        "meta_classification_type": "U",
        "meta_norad_cat_id": 66606,
        "meta_element_set_no": 999,
        "meta_rev_at_epoch": 473,
        "meta_bstar": 0.00085172846,
        "meta_mean_motion_dot": 0.00049972,
        "meta_mean_motion_ddot": 0,
        "tle_line1": "1 66606U 25270U   25349.24054040  .00049972  00000+0  85173-3 0  9999",
        "tle_line2": "2 66606  42.9989 178.0222 0001602 269.3517  90.7159 15.50593862  4730"
      },
      "geometry": {
        "type": "Point",
        "coordinates": [
          -70.04499709705676,
          39.619215547013894
        ]
      }
    },
    {
      "type": "Feature",
      "properties": {
        "norad_id": 66607,
        "name": "STARLINK-35993",
        "group": "last-30-days",
        "lat": 40.17326562161576,
        "lon": -72.32874593642157,
        "alt_km": 409.12654763825594,
        "timestamp": "2025-12-16T03:53:25.816027+00:00",
        "meta_object_name": "STARLINK-35993",
        "meta_object_id": "2025-270V",
        "meta_epoch": "2025-12-15T05:46:52.452768",
        "meta_mean_motion": 15.50599893,
        "meta_eccentricity": 0.00014705,
        "meta_inclination": 42.9991,
        "meta_ra_of_asc_node": 178.0256,
        "meta_arg_of_pericenter": 264.0151,
        "meta_mean_anomaly": 96.0542,
        "meta_ephemeris_type": 0,
        "meta_classification_type": "U",
        "meta_norad_cat_id": 66607,
        "meta_element_set_no": 999,
        "meta_rev_at_epoch": 463,
        "meta_bstar": 0.0012134027,
        "meta_mean_motion_dot": 0.0007155,
        "meta_mean_motion_ddot": 0,
        "tle_line1": "1 66607U 25270V   25349.24088487  .00071550  00000+0  12134-2 0  9995",
        "tle_line2": "2 66607  42.9991 178.0256 0001470 264.0151  96.0542 15.50599893  4634"
      },
      "geometry": {
        "type": "Point",
        "coordinates": [
          -72.32874593642157,
          40.17326562161576
        ]
      }
    },
    {
      "type": "Feature",
      "properties": {
        "norad_id": 66608,
        "name": "STARLINK-36036",
        "group": "last-30-days",
        "lat": 38.9810360791641,
        "lon": -67.65410730751819,
        "alt_km": 409.41981440577274,
        "timestamp": "2025-12-16T03:53:25.816039+00:00",
        "meta_object_name": "STARLINK-36036",
        "meta_object_id": "2025-270W",
        "meta_epoch": "2025-12-15T05:45:53.066592",
        "meta_mean_motion": 15.50598473,
        "meta_eccentricity": 0.00014992,
        "meta_inclination": 42.9989,
        "meta_ra_of_asc_node": 178.0198,
        "meta_arg_of_pericenter": 270.0346,
        "meta_mean_anomaly": 90.0343,
        "meta_ephemeris_type": 0,
        "meta_classification_type": "U",
        "meta_norad_cat_id": 66608,
        "meta_element_set_no": 999,
        "meta_rev_at_epoch": 457,
        "meta_bstar": 0.00098919184,
        "meta_mean_motion_dot": 0.00058162,
        "meta_mean_motion_ddot": 0,
        "tle_line1": "1 66608U 25270W   25349.24019753  .00058162  00000+0  98919-3 0  9996",
        "tle_line2": "2 66608  42.9989 178.0198 0001499 270.0346  90.0343 15.50598473  4570"
      },
      "geometry": {
        "type": "Point",
        "coordinates": [
          -67.65410730751819,
          38.9810360791641
        ]
      }
    },
    {
      "type": "Feature",
      "properties": {
        "norad_id": 66609,
        "name": "STARLINK-36034",
        "group": "last-30-days",
        "lat": 38.270238270855515,
        "lon": -65.22831034251385,
        "alt_km": 409.350672727418,
        "timestamp": "2025-12-16T03:53:25.816050+00:00",
        "meta_object_name": "STARLINK-36034",
        "meta_object_id": "2025-270X",
        "meta_epoch": "2025-12-15T05:45:23.502240",
        "meta_mean_motion": 15.50605276,
        "meta_eccentricity": 0.0001506,
        "meta_inclination": 42.9987,
        "meta_ra_of_asc_node": 178.0171,
        "meta_arg_of_pericenter": 271.6445,
        "meta_mean_anomaly": 88.4243,
        "meta_ephemeris_type": 0,
        "meta_classification_type": "U",
        "meta_norad_cat_id": 66609,
        "meta_element_set_no": 999,
        "meta_rev_at_epoch": 457,
        "meta_bstar": 0.001486724,
        "meta_mean_motion_dot": 0.00087946,
        "meta_mean_motion_ddot": 0,
        "tle_line1": "1 66609U 25270X   25349.23985535  .00087946  00000+0  14867-2 0  9997",
        "tle_line2": "2 66609  42.9987 178.0171 0001506 271.6445  88.4243 15.50605276  4576"
      },
      "geometry": {
        "type": "Point",
        "coordinates": [
          -65.22831034251385,
          38.270238270855515
        ]
      }
    }
  ]
}